     2.100          NAVIGATION                              RINEX VERSION / TYPE
fic2rin                                 07/01/2015 00:33:39 PGM / RUN BY / DATE
                                                            END OF HEADER
 2 15  6 30 10  0  0.0  .575290527195D-03  .238742359215D-11  .000000000000D+00
     .310000000000D+02  .157812500000D+02  .484055877156D-08  .215482048552D+01
     .810250639915D-06  .146345793037D-01  .861845910549D-05  .515358189964D+04
     .208800000000D+06 -.208616256714D-06 -.259165024073D+01 -.357627868652D-06
     .941197601732D+00  .200625000000D+03 -.225329123645D+01 -.802569144512D-08
     .719315676671D-09  .100000000000D+01  .185100000000D+04  .000000000000D+00
     .240000000000D+01  .000000000000D+00 -.204890966415D-07  .310000000000D+02
     .201606000000D+06  .400000000000D+01
 4 15  6 30 10  0  0.0 -.224327668548D-04 -.250111042988D-11  .000000000000D+00
     .830000000000D+02  .174375000000D+02  .504271004911D-08  .143139533847D+01
     .845640897751D-06  .114458882017D-01  .858120620251D-05  .515367391586D+04
     .208800000000D+06 -.217929482460D-06 -.257642485937D+01 -.149011611938D-07
     .940252735129D+00  .203250000000D+03  .106798495781D+01 -.833427572747D-08
     .668599278415D-09  .100000000000D+01  .185100000000D+04  .000000000000D+00
     .240000000000D+01  .000000000000D+00 -.651925802231D-08  .830000000000D+02
     .201606000000D+06  .400000000000D+01
 5 15  6 30 10  0  0.0 -.223445240408D-03  .443378667114D-11  .000000000000D+00
     .470000000000D+02 -.243750000000D+02  .531593571577D-08 -.163171834622D+01
    -.152550637722D-05  .418380438350D-02  .501237809658D-05  .515357805634D+04
     .208800000000D+06  .409781932831D-07 -.151995720544D+01 -.577419996262D-07
     .945956071942D+00  .270875000000D+03  .371193230648D+00 -.835999108433D-08
    -.117862052285D-09  .100000000000D+01  .185100000000D+04  .000000000000D+00
     .240000000000D+01  .000000000000D+00 -.107102096081D-07  .470000000000D+02
     .201606000000D+06  .400000000000D+01
 6 15  6 30 10  0  0.0  .597862526774D-05  .841282599140D-11  .000000000000D+00
     .140000000000D+02  .145312500000D+02  .440911222865D-08 -.276948877399D+01
     .899657607079D-06  .133445253596D-03  .859424471855D-05  .515377316284D+04
     .208800000000D+06  .242143869400D-07 -.256183062769D+01 -.316649675369D-07
     .962414740048D+00  .213718750000D+03 -.301082790559D+01 -.786782772661D-08
     .696100423948D-09  .100000000000D+01  .185100000000D+04  .000000000000D+00
     .240000000000D+01  .000000000000D+00  .419095158577D-08  .140000000000D+02
     .201606000000D+06  .400000000000D+01
 7 15  6 30 10  0  0.0  .471747945994D-03  .227373675443D-11  .000000000000D+00
     .107000000000D+03  .137625000000D+03  .445911431144D-08  .103090440105D+01
     .736117362976D-05  .857789663132D-02  .522099435329D-05  .515371613884D+04
     .208800000000D+06  .447034835815D-07  .606417158406D+00  .428408384323D-07
     .970160525549D+00  .280968750000D+03 -.274479876763D+01 -.831713215622D-08
     .125005206969D-09  .100000000000D+01  .185100000000D+04  .000000000000D+00
     .240000000000D+01  .000000000000D+00 -.111758708954D-07  .107000000000D+03
     .201606000000D+06  .400000000000D+01
 8 15  6 30 10  0  0.0 -.225990079343D-03 -.147792889038D-11  .000000000000D+00
     .930000000000D+02 -.669375000000D+02  .545451291664D-08 -.142943040250D+01
    -.344216823578D-05  .778577406891D-02  .162795186043D-05  .515371972466D+04
     .208800000000D+06  .141561031342D-06  .164931384066D+01  .223517417908D-07
     .982813507362D+00  .360093750000D+03  .895558384653D+00 -.816855453880D-08
    -.331799535068D-09  .100000000000D+01  .185100000000D+04  .000000000000D+00
     .485000000000D+01  .630000000000D+02 -.190921127796D-07  .930000000000D+02
     .201606000000D+06  .400000000000D+01
10 15  6 30 10  0  0.0 -.180783215910D-03 -.147792889038D-11  .000000000000D+00
     .150000000000D+02 -.202500000000D+02  .543058334845D-08 -.134081596410D+01
    -.825151801109D-06  .148035243619D-01  .478886067867D-05  .515368116379D+04
     .208800000000D+06  .344589352608D-06 -.150505602282D+01  .102445483208D-06
     .940752614237D+00  .270406250000D+03  .935612575494D+00 -.838499212572D-08
    -.159649507186D-09  .100000000000D+01  .185100000000D+04  .000000000000D+00
     .240000000000D+01  .000000000000D+00 -.279396772385D-08  .150000000000D+02
     .201606000000D+06  .400000000000D+01
11 15  6 30 10  0  0.0 -.588351394981D-03 -.250111042988D-11  .000000000000D+00
     .200000000000D+02 -.130312500000D+02  .591131765868D-08  .108721402557D+01
    -.739470124245D-06  .159206335666D-01  .106450170279D-04  .515374507332D+04
     .208800000000D+06 -.253319740295D-06 -.290639986989D+01 -.113621354103D-06
     .893799219811D+00  .141750000000D+03  .141691236756D+01 -.883608234401D-08
     .591453207829D-09  .100000000000D+01  .185100000000D+04  .000000000000D+00
     .240000000000D+01  .000000000000D+00 -.121071934700D-07  .200000000000D+02
     .201606000000D+06  .400000000000D+01
12 15  6 30 10  0  0.0  .305847264826D-03  .329691829393D-11  .000000000000D+00
     .940000000000D+02 -.586562500000D+02  .407695553585D-08  .476352785366D+00
    -.306591391563D-05  .558542832732D-02  .193528831005D-05  .515365776634D+04
     .208800000000D+06 -.745058059692D-08  .167622664278D+01  .782310962677D-07
     .989575901774D+00  .355000000000D+03  .629675860344D+00 -.817998358629D-08
    -.338585532018D-09  .100000000000D+01  .185100000000D+04  .000000000000D+00
     .240000000000D+01  .000000000000D+00 -.121071934700D-07  .940000000000D+02
     .201606000000D+06  .400000000000D+01
13 15  6 30 10  0  0.0 -.127951614559D-03 -.341060513165D-11  .000000000000D+00
     .106000000000D+03  .502187500000D+02  .408267005960D-08  .179269371892D+01
     .260025262833D-05  .496323883999D-02  .117104500532D-04  .515368468475D+04
     .208800000000D+06  .819563865662D-07 -.354057645476D+00  .745058059692D-08
     .974157015858D+00  .160437500000D+03  .209716236360D+01 -.755388607825D-08
    -.305012705003D-09  .100000000000D+01  .185100000000D+04  .000000000000D+00
     .240000000000D+01  .000000000000D+00 -.111758708954D-07  .106000000000D+03
     .201606000000D+06  .400000000000D+01
14 15  6 30 10  0  0.0  .523463822901D-04 -.272848410532D-11  .000000000000D+00
     .116000000000D+03  .586562500000D+02  .425196282560D-08 -.255321888539D+01
     .304915010929D-05  .829992943909D-02  .112038105726D-04  .515361798286D+04
     .208800000000D+06  .199303030968D-06 -.388862933062D+00  .745058059692D-08
     .966623194022D+00  .165093750000D+03 -.197348597010D+01 -.761245994666D-08
    -.260010830495D-09  .100000000000D+01  .185100000000D+04  .000000000000D+00
     .485000000000D+01  .000000000000D+00 -.931322574615D-08  .116000000000D+03
     .201606000000D+06  .400000000000D+01
15 15  6 30 10  0  0.0 -.257827341557D-03 -.216004991671D-11  .000000000000D+00
     .830000000000D+02  .295000000000D+02  .502949521295D-08  .307357148039D+01
     .155717134476D-05  .719455862418D-02  .113565474749D-04  .515367059898D+04
     .208800000000D+06 -.949949026108D-07 -.514024592170D+00 -.558793544769D-07
     .933198212068D+00  .147468750000D+03  .390201724005D+00 -.797068915405D-08
    -.375372778640D-09  .100000000000D+01  .185100000000D+04  .000000000000D+00
     .240000000000D+01  .000000000000D+00 -.107102096081D-07  .830000000000D+02
     .201606000000D+06  .400000000000D+01
17 15  6 30 10  0  0.0 -.178129877895D-03 -.170530256582D-11  .000000000000D+00
     .350000000000D+02 -.111187500000D+03  .370658296549D-08 -.253753340314D+01
    -.562518835068D-05  .101345230360D-01  .106412917376D-04  .515379052353D+04
     .208800000000D+06  .484287738800D-07  .272120839437D+01 -.894069671631D-07
     .973171323600D+00  .180656250000D+03 -.200918874476D+01 -.739780814840D-08
     .935753263594D-10  .100000000000D+01  .185100000000D+04  .000000000000D+00
     .240000000000D+01  .000000000000D+00 -.107102096081D-07  .350000000000D+02
     .201606000000D+06  .400000000000D+01
18 15  6 30 10  0  0.0  .413445290178D-03  .306954461848D-11  .000000000000D+00
     .780000000000D+02 -.177187500000D+02  .587595904299D-08 -.990682211628D+00
    -.514090061188D-06  .163378547877D-01  .526756048203D-05  .515360355377D+04
     .208800000000D+06 -.521540641785D-07 -.153384980844D+01  .393018126488D-06
     .924541148564D+00  .260125000000D+03 -.195132770733D+01 -.878143721068D-08
    -.165364030933D-09  .100000000000D+01  .185100000000D+04  .000000000000D+00
     .240000000000D+01  .000000000000D+00 -.111758708954D-07  .780000000000D+02
     .201606000000D+06  .400000000000D+01
19 15  6 30 10  0  0.0 -.514697283506D-03 -.102318153949D-11  .000000000000D+00
     .510000000000D+02 -.113156250000D+03  .378872924435D-08  .294701948296D+01
    -.582262873650D-05  .115365447709D-01  .119805335999D-04  .515375243759D+04
     .208800000000D+06 -.372529029846D-07  .277068129946D+01 -.987201929092D-07
     .970266099958D+00  .151968750000D+03  .570551414671D+00 -.750102673359D-08
     .146791828755D-09  .100000000000D+01  .185100000000D+04  .000000000000D+00
     .240000000000D+01  .000000000000D+00 -.153668224812D-07  .510000000000D+02
     .201606000000D+06  .400000000000D+01
20 15  6 30 10  0  0.0  .334306154400D-03  .329691829393D-11  .000000000000D+00
     .780000000000D+02 -.205000000000D+02  .579024118679D-08  .313172849542D+01
    -.124797224998D-05  .478283059783D-02  .494532287121D-05  .515359564209D+04
     .208800000000D+06  .521540641785D-07 -.158617215611D+01 -.111758708954D-06
     .925734164109D+00  .266375000000D+03  .117115926394D+01 -.855785646907D-08
    -.122862260563D-09  .100000000000D+01  .185100000000D+04  .000000000000D+00
     .240000000000D+01  .000000000000D+00 -.838190317154D-08  .780000000000D+02
     .201606000000D+06  .400000000000D+01
